H1 CPF 01  gfz 2022 05 01 00  6211 terrasarx 
H2 0702601  6201 31698    2022 05 01 00 59 42 2022 05 06 00 00 42   120 1 1  0 0 0
H9
10 0 59700   3582.000000  0    1896867.779   6389835.313  -1751660.161
10 0 59700   3702.000000  0    1985205.578   6063183.594  -2608629.827
10 0 59700   3822.000000  0    2032282.474   5629640.193  -3419800.892
10 0 59700   3942.000000  0    2035516.143   5097607.503  -4170990.594
10 0 59700   4062.000000  0    1993253.338   4477228.937  -4849100.646
10 0 59700   4182.000000  0    1904822.767   3780184.181  -5442340.560
10 0 59700   4302.000000  0    1770567.515   3019460.518  -5940424.500
10 0 59700   4422.000000  0    1591855.613   2209104.066  -6334739.803
10 0 59700   4542.000000  0    1371069.398   1363957.352  -6618483.752
10 0 59700   4662.000000  0    1111575.128    499388.899  -6786770.373
10 0 59700   4782.000000  0     817671.649   -368982.790  -6836706.237
10 0 59700   4902.000000  0     494519.492  -1225566.146  -6767433.873
10 0 59700   5022.000000  0     148052.157  -2055068.970  -6580143.299
10 0 59700   5142.000000  0    -215129.165  -2842763.441  -6278054.804
10 0 59700   5262.000000  0    -587877.895  -3574744.131  -5866370.963
10 0 59700   5382.000000  0    -962637.920  -4238171.598  -5352195.303
10 0 59700   5502.000000  0   -1331591.563  -4821499.275  -4744421.570
10 0 59700   5622.000000  0   -1686818.193  -5314680.548  -4053591.409
10 0 59700   5742.000000  0   -2020460.206  -5709350.553  -3291721.292
10 0 59700   5862.000000  0   -2324892.606  -5998978.458  -2472101.069
10 0 59700   5982.000000  0   -2592892.683  -6178987.127  -1609066.848
10 0 59700   6102.000000  0   -2817805.895  -6246836.884   -717750.680
10 0 59700   6222.000000  0   -2993703.583  -6202069.238    186188.950
10 0 59700   6342.000000  0   -3115527.733  -6046308.162   1086849.203
10 0 59700   6462.000000  0   -3179219.197  -5783219.531   1968371.265
10 0 59700   6582.000000  0   -3181825.871  -5418428.717   2815228.941
10 0 59700   6702.000000  0   -3121587.815  -4959398.902   3612510.032
10 0 59700   6822.000000  0   -2997997.258  -4415273.949   4346184.920
10 0 59700   6942.000000  0   -2811832.700  -3796689.493   5003356.806
10 0 59700   7062.000000  0   -2565166.572  -3115557.059   5572488.847
10 0 59700   7182.000000  0   -2261345.072  -2384827.111   6043603.898
10 0 59700   7302.000000  0   -1904942.315  -1618237.845   6408454.679
10 0 59700   7422.000000  0   -1501689.182   -830053.018   6660663.858
10 0 59700   7542.000000  0   -1058378.434    -34792.698   6795828.443
10 0 59700   7662.000000  0    -582750.141    753033.458   6811590.092
10 0 59700   7782.000000  0     -83356.786   1519190.015   6707674.715
10 0 59700   7902.000000  0     430590.421   2249972.817   6485897.177
10 0 59700   8022.000000  0     949391.121   2932453.994   6150131.044
10 0 59700   8142.000000  0    1463037.796   3554711.115   5706245.270
10 0 59700   8262.000000  0    1961407.770   4106038.706   5162007.584
10 0 59700   8382.000000  0    2434462.891   4577137.846   4526954.917
10 0 59700   8502.000000  0    2872452.887   4960279.166   3812230.569
10 0 59700   8622.000000  0    3266116.470   5249435.521   3030392.952
10 0 59700   8742.000000  0    3606879.605   5440386.130   2195197.189
10 0 59700   8862.000000  0    3887043.596   5530782.368   1321347.610
10 0 59700   8982.000000  0    4099955.746   5520175.633    424234.293
10 0 59700   9102.000000  0    4240161.868   5410007.742   -480346.851
10 0 59700   9222.000000  0    4303535.061   5203560.660  -1376480.510
10 0 59700   9342.000000  0    4287378.479   4905870.813  -2248419.781
10 0 59700   9462.000000  0    4190498.501   4523608.680  -3080869.867
10 0 59700   9582.000000  0    4013246.508   4064927.113  -3859261.380
10 0 59700   9702.000000  0    3757528.966   3539282.077  -4570005.749
10 0 59700   9822.000000  0    3426787.732   2957232.431  -5200729.359
10 0 59700   9942.000000  0    3025949.491   2330222.693  -5740483.052
10 0 59700  10062.000000  0    2561346.894   1670354.398  -6179922.873
10 0 59700  10182.000000  0    2040613.605    990150.878  -6511460.647
10 0 59700  10302.000000  0    1472556.183    302321.100  -6729382.455
10 0 59700  10422.000000  0     867005.879   -380473.500  -6829938.058
10 0 59700  10542.000000  0     234649.221  -1045847.889  -6811398.943
10 0 59700  10662.000000  0    -413156.716  -1681912.255  -6674082.850
10 0 59700  10782.000000  0   -1064582.524  -2277478.228  -6420349.445
10 0 59700  10902.000000  0   -1707537.627  -2822252.445  -6054565.100
10 0 59700  11022.000000  0   -2329889.404  -3307012.718  -5583035.021
10 0 59700  11142.000000  0   -2919688.126  -3723764.876  -5013906.119
10 0 59700  11262.000000  0   -3465396.113  -4065879.146  -4357038.397
10 0 59700  11382.000000  0   -3956114.864  -4328201.164  -3623844.132
10 0 59700  11502.000000  0   -4381805.608  -4507135.777  -2827098.529
10 0 59700  11622.000000  0   -4733499.252  -4600701.564  -1980722.663
10 0 59700  11742.000000  0   -5003489.928  -4608553.660  -1099542.140
10 0 59700  11862.000000  0   -5185507.132  -4531974.134   -199025.671
10 0 59700  11982.000000  0   -5274862.044  -4373829.882    704991.512
10 0 59700  12102.000000  0   -5268563.258  -4138497.887   1596594.710
10 0 59700  12222.000000  0   -5165397.792  -3831758.676   2460079.732
10 0 59700  12342.000000  0   -4965975.819  -3460661.428   3280238.162
10 0 59700  12462.000000  0   -4672738.441  -3033364.919   4042632.160
10 0 59700  12582.000000  0   -4289928.066  -2558957.739   4733853.991
10 0 59700  12702.000000  0   -3823521.908  -2047262.543   5341762.581
10 0 59700  12822.000000  0   -3281133.160  -1508631.093   5855694.213
10 0 59700  12942.000000  0   -2671881.241   -953733.484   6266646.919
10 0 59700  13062.000000  0   -2006231.955   -393344.422   6567433.917
10 0 59700  13182.000000  0   -1295811.925    161867.300   6752802.090
10 0 59700  13302.000000  0    -553203.220    701540.135   6819516.965
10 0 59700  13422.000000  0     208279.509   1215812.046   6766415.771
10 0 59700  13542.000000  0     974827.095   1695500.364   6594426.661
10 0 59700  13662.000000  0    1732385.717   2132266.025   6306553.127
10 0 59700  13782.000000  0    2466913.574   2518758.458   5907824.477
10 0 59700  13902.000000  0    3164641.490   2848740.636   5405214.272
10 0 59700  14022.000000  0    3812334.249   3117192.357   4807524.563
10 0 59700  14142.000000  0    4397544.758   3320389.022   4125236.388
10 0 59700  14262.000000  0    4908858.595   3455954.397   3370332.438
10 0 59700  14382.000000  0    5336126.299   3522887.404   2556087.633
10 0 59700  14502.000000  0    5670670.605   3521558.324   1696833.489
10 0 59700  14622.000000  0    5905468.214   3453678.140    807702.075
10 0 59700  14742.000000  0    6035300.431   3322239.651    -95648.038
10 0 59700  14862.000000  0    6056867.447   3131431.189   -997316.395
10 0 59700  14982.000000  0    5968864.392   2886525.689  -1881449.136
10 0 59700  15102.000000  0    5772016.318   2593749.369  -2732524.801
10 0 59700  15222.000000  0    5469073.209   2260132.891  -3535632.466
10 0 59700  15342.000000  0    5064765.227   1893347.816  -4276735.586
10 0 59700  15462.000000  0    4565718.504   1501533.202  -4942917.313
10 0 59700  15582.000000  0    3980334.581   1093117.353  -5522599.393
10 0 59700  15702.000000  0    3318639.773    676639.659  -6005734.687
10 0 59700  15822.000000  0    2592105.557    260575.337  -6383971.282
10 0 59700  15942.000000  0    1813444.845   -146832.988  -6650784.886
10 0 59700  16062.000000  0     996389.679   -537734.104  -6801580.859
10 0 59700  16182.000000  0     155450.848   -904815.652  -6833766.011
10 0 59700  16302.000000  0    -694335.471  -1241436.730  -6746786.579
10 0 59700  16422.000000  0   -1537669.384  -1541744.500  -6542136.947
10 0 59700  16542.000000  0   -2359256.797  -1800774.041  -6223337.252
10 0 59700  16662.000000  0   -3144080.622  -2014529.214  -5795878.330
10 0 59700  16782.000000  0   -3877670.686  -2180044.348  -5267137.989
10 0 59700  16902.000000  0   -4546371.603  -2295426.027  -4646265.823
10 0 59700  17022.000000  0   -5137600.689  -2359872.863  -3944035.678
10 0 59700  17142.000000  0   -5640091.532  -2373673.343  -3172668.768
10 0 59700  17262.000000  0   -6044118.338  -2338180.958  -2345627.746
10 0 59700  17382.000000  0   -6341694.584  -2255766.731  -1477385.138
10 0 59700  17502.000000  0   -6526741.512  -2129750.156   -583169.804
10 0 59700  17622.000000  0   -6595220.893  -1964309.604    321304.219
10 0 59700  17742.000000  0   -6545228.645  -1764374.065   1220120.805
10 0 59700  17862.000000  0   -6377045.549  -1535498.758   2097450.950
10 0 59700  17982.000000  0   -6093142.995  -1283728.487   2937840.873
10 0 59700  18102.000000  0   -5698144.956  -1015451.650   3726492.022
10 0 59700  18222.000000  0   -5198746.320   -737248.433   4449528.899
10 0 59700  18342.000000  0   -4603588.646   -455737.913   5094245.178
10 0 59700  18462.000000  0   -3923101.894   -177427.886   5649325.494
10 0 59700  18582.000000  0   -3169313.001     91429.859   6105042.030
10 0 59700  18702.000000  0   -2355624.453    344975.279   6453420.108
10 0 59700  18822.000000  0   -1496569.754    577862.987   6688371.648
10 0 59700  18942.000000  0    -607549.818    785371.552   6805795.628
10 0 59700  19062.000000  0     295444.074    963497.171   6803644.290
10 0 59700  19182.000000  0    1196116.995   1109029.820   6681956.281
10 0 59700  19302.000000  0    2078163.323   1219611.369   6442856.146
10 0 59700  19422.000000  0    2925560.984   1293773.904   6090519.645
10 0 59700  19542.000000  0    3722863.692   1330957.999   5631106.076
10 0 59700  19662.000000  0    4455485.387   1331510.582   5072655.344
10 0 59700  19782.000000  0    5109971.053   1296662.917   4424954.407
10 0 59700  19902.000000  0    5674253.218   1228488.822   3699372.232
10 0 59700  20022.000000  0    6137884.691   1129844.052   2908661.455
99
